[{"OBJECT_NAME":"QIANFAN-103","OBJECT_ID":"2025-233N","EPOCH":"2026-03-03T17:12:48.487968","MEAN_MOTION":13.51006066,"ECCENTRICITY":0.0001885,"INCLINATION":88.9933,"RA_OF_ASC_NODE":53.8544,"ARG_OF_PERICENTER":91.4331,"MEAN_ANOMALY":268.7036,"EPHEMERIS_TYPE":0,"CLASSIFICATION_TYPE":"U","NORAD_CAT_ID":66045,"ELEMENT_SET_NO":999,"REV_AT_EPOCH":1894,"BSTAR":4.0903e-5,"MEAN_MOTION_DOT":3.8e-7,"MEAN_MOTION_DDOT":0},{"OBJECT_NAME":"QIANFAN-104","OBJECT_ID":"2025-233P","EPOCH":"2026-03-03T17:18:25.899840","MEAN_MOTION":13.51010124,"ECCENTRICITY":0.0002084,"INCLINATION":88.9937,"RA_OF_ASC_NODE":53.7514,"ARG_OF_PERICENTER":86.1484,"MEAN_ANOMALY":273.9905,"EPHEMERIS_TYPE":0,"CLASSIFICATION_TYPE":"U","NORAD_CAT_ID":66046,"ELEMENT_SET_NO":999,"REV_AT_EPOCH":1899,"BSTAR":3.8347e-5,"MEAN_MOTION_DOT":3.7e-7,"MEAN_MOTION_DDOT":0},{"OBJECT_NAME":"QIANFAN-105","OBJECT_ID":"2025-233Q","EPOCH":"2026-03-03T17:30:08.123616","MEAN_MOTION":13.50981403,"ECCENTRICITY":0.0002013,"INCLINATION":88.9951,"RA_OF_ASC_NODE":53.5796,"ARG_OF_PERICENTER":92.6133,"MEAN_ANOMALY":267.5248,"EPHEMERIS_TYPE":0,"CLASSIFICATION_TYPE":"U","NORAD_CAT_ID":66047,"ELEMENT_SET_NO":999,"REV_AT_EPOCH":1910,"BSTAR":3.5155e-5,"MEAN_MOTION_DOT":3.5e-7,"MEAN_MOTION_DDOT":0},{"OBJECT_NAME":"QIANFAN-106","OBJECT_ID":"2025-233R","EPOCH":"2026-03-03T19:11:14.328096","MEAN_MOTION":13.51005087,"ECCENTRICITY":0.0002382,"INCLINATION":88.992,"RA_OF_ASC_NODE":53.8184,"ARG_OF_PERICENTER":86.8305,"MEAN_ANOMALY":273.3119,"EPHEMERIS_TYPE":0,"CLASSIFICATION_TYPE":"U","NORAD_CAT_ID":66048,"ELEMENT_SET_NO":999,"REV_AT_EPOCH":1896,"BSTAR":2.5774e-5,"MEAN_MOTION_DOT":2.9e-7,"MEAN_MOTION_DDOT":0},{"OBJECT_NAME":"QIANFAN-107","OBJECT_ID":"2025-233S","EPOCH":"2026-03-03T17:36:28.643040","MEAN_MOTION":13.51003111,"ECCENTRICITY":0.0001911,"INCLINATION":88.9935,"RA_OF_ASC_NODE":53.8408,"ARG_OF_PERICENTER":90.5478,"MEAN_ANOMALY":269.5892,"EPHEMERIS_TYPE":0,"CLASSIFICATION_TYPE":"U","NORAD_CAT_ID":66049,"ELEMENT_SET_NO":999,"REV_AT_EPOCH":1895,"BSTAR":3.7392e-5,"MEAN_MOTION_DOT":3.6e-7,"MEAN_MOTION_DDOT":0},{"OBJECT_NAME":"QIANFAN-108","OBJECT_ID":"2025-233T","EPOCH":"2026-03-03T17:42:23.452416","MEAN_MOTION":13.51004613,"ECCENTRICITY":0.0002335,"INCLINATION":88.9928,"RA_OF_ASC_NODE":53.8356,"ARG_OF_PERICENTER":86.536,"MEAN_ANOMALY":273.6058,"EPHEMERIS_TYPE":0,"CLASSIFICATION_TYPE":"U","NORAD_CAT_ID":66050,"ELEMENT_SET_NO":999,"REV_AT_EPOCH":1895,"BSTAR":4.048e-5,"MEAN_MOTION_DOT":3.8e-7,"MEAN_MOTION_DDOT":0}]
