QIANFAN-103             
1 66045U 25233N   26062.71722787  .00000038  00000+0  40903-4 0  9993
2 66045  88.9933  53.8544 0001885  91.4331 268.7036 13.51006066 18947
QIANFAN-104             
1 66046U 25233P   26062.72113310  .00000037  00000+0  38347-4 0  9999
2 66046  88.9937  53.7514 0002084  86.1484 273.9905 13.51010124 18998
QIANFAN-105             
1 66047U 25233Q   26062.72926069  .00000035  00000+0  35155-4 0  9995
2 66047  88.9951  53.5796 0002013  92.6133 267.5248 13.50981403 19109
QIANFAN-106             
1 66048U 25233R   26062.79947139  .00000029  00000+0  25774-4 0  9993
2 66048  88.9920  53.8184 0002382  86.8305 273.3119 13.51005087 18966
QIANFAN-107             
1 66049U 25233S   26062.73366485  .00000036  00000+0  37392-4 0  9994
2 66049  88.9935  53.8408 0001911  90.5478 269.5892 13.51003111 18952
QIANFAN-108             
1 66050U 25233T   26062.73777144  .00000038  00000+0  40480-4 0  9998
2 66050  88.9928  53.8356 0002335  86.5360 273.6058 13.51004613 18952
